[{"OBJECT_NAME":"JILIN-1 GAOFEN 03D50","OBJECT_ID":"2022-167J","EPOCH":"2026-03-09T22:35:59.947584","MEAN_MOTION":15.32279726,"ECCENTRICITY":0.00065764,"INCLINATION":97.6731,"RA_OF_ASC_NODE":232.9458,"ARG_OF_PERICENTER":101.1473,"MEAN_ANOMALY":259.0507,"EPHEMERIS_TYPE":0,"CLASSIFICATION_TYPE":"U","NORAD_CAT_ID":54690,"ELEMENT_SET_NO":999,"REV_AT_EPOCH":18014,"BSTAR":0.00049467973,"MEAN_MOTION_DOT":0.00015359,"MEAN_MOTION_DDOT":0},{"OBJECT_NAME":"STARLINK-31306","OBJECT_ID":"2024-020A","EPOCH":"2026-03-09T22:41:18.531168","MEAN_MOTION":15.30186295,"ECCENTRICITY":0.00020004,"INCLINATION":53.1638,"RA_OF_ASC_NODE":320.9951,"ARG_OF_PERICENTER":52.9033,"MEAN_ANOMALY":307.215,"EPHEMERIS_TYPE":0,"CLASSIFICATION_TYPE":"U","NORAD_CAT_ID":58876,"ELEMENT_SET_NO":999,"REV_AT_EPOCH":11929,"BSTAR":4.162504e-6,"MEAN_MOTION_DOT":-2.36e-6,"MEAN_MOTION_DDOT":0}]
